{
    "links": {
        "self": "http://www.neowsapp.com/rest/v1/neo/54017450?api_key=iIulBulltgU6a56xZRHN4H3l9WmuAYTsLGpBGhQ2"
    },
    "id": "54017450",
    "neo_reference_id": "54017450",
    "name": "(2020 MA)",
    "designation": "2020 MA",
    "nasa_jpl_url": "http://ssd.jpl.nasa.gov/sbdb.cgi?sstr=54017450",
    "absolute_magnitude_h": 25.287,
    "estimated_diameter": {
        "kilometers": {
            "estimated_diameter_min": 0.0232892218,
            "estimated_diameter_max": 0.052076283
        },
        "meters": {
            "estimated_diameter_min": 23.2892217788,
            "estimated_diameter_max": 52.0762830406
        },
        "miles": {
            "estimated_diameter_min": 0.014471247,
            "estimated_diameter_max": 0.0323586921
        },
        "feet": {
            "estimated_diameter_min": 76.4082103809,
            "estimated_diameter_max": 170.8539524508
        }
    },
    "is_potentially_hazardous_asteroid": false,
    "close_approach_data": [
        {
            "close_approach_date": "2020-06-25",
            "close_approach_date_full": "2020-Jun-25 23:35",
            "epoch_date_close_approach": 1593128100000,
            "relative_velocity": {
                "kilometers_per_second": "7.7752550184",
                "kilometers_per_hour": "27990.9180663796",
                "miles_per_hour": "17392.4679507457"
            },
            "miss_distance": {
                "astronomical": "0.0136936931",
                "lunar": "5.3268466159",
                "kilometers": "2048547.320193697",
                "miles": "1272908.2792271386"
            },
            "orbiting_body": "Earth"
        }
    ],
    "orbital_data": {
        "orbit_id": "3",
        "orbit_determination_date": "2020-06-23 06:12:50",
        "first_observation_date": "2020-06-10",
        "last_observation_date": "2020-06-22",
        "data_arc_in_days": 12,
        "observations_used": 22,
        "orbit_uncertainty": "8",
        "minimum_orbit_intersection": ".0127332",
        "jupiter_tisserand_invariant": "3.638",
        "epoch_osculation": "2459014.5",
        "eccentricity": ".4997903517849897",
        "semi_major_axis": "2.031893920457124",
        "inclination": "5.674023223997342",
        "ascending_node_longitude": "88.1422349619733",
        "orbital_period": "1057.913046980281",
        "perihelion_distance": "1.016372943162076",
        "perihelion_argument": "198.4416376703457",
        "aphelion_distance": "3.047414897752172",
        "perihelion_time": "2459036.857751442093",
        "mean_anomaly": "352.3918222370656",
        "mean_motion": ".3402926176471574",
        "equinox": "J2000",
        "orbit_class": {
            "orbit_class_type": "APO",
            "orbit_class_description": "Near-Earth asteroid orbits which cross the Earth’s orbit similar to that of 1862 Apollo",
            "orbit_class_range": "a (semi-major axis) > 1.0 AU; q (perihelion) < 1.017 AU"
        }
    },
    "is_sentry_object": false
}